*******************************************************************************
 Revised: Sep 28, 2012             Deimos / (Mars)                          402

 SATELLITE PHYSICAL PROPERTIES:
  Radius (km)             = 7.8 x 6.0 x 5.1 Density (g cm^-3)   =  1.76 +- 0.30
  Mass (10^20 kg )        = 1.80 (10^-5)    Geometric Albedo    =  0.06 
                               (+- 0.15)    V(1,0)              = +12.89

 SATELLITE ORBITAL DATA:
  Semi-major axis, a (km) = 23.4632(10^3)   Orbital period      = 1.263 d
  Eccentricity, e         =  0.00033        Rotational period   = Synchronous
  Inclination, i  (deg)   =  1.791
*******************************************************************************
 

 

*******************************************************************************
Ephemeris / WWW_USER Fri Jul  2 08:29:59 2021 Pasadena, USA      / Horizons
*******************************************************************************
Target body name: Deimos (402)                    {source: mar097}
Center body name: Mars (499)                      {source: mar097}
Center-site name: BODY CENTER
*******************************************************************************
Start time      : A.D. 1900-Jan-01 00:00:00.0000 TDB
Stop  time      : A.D. 2100-Jan-01 00:00:00.0000 TDB
Step-size       : 1 calendar months
*******************************************************************************
Center geodetic : 0.00000000,0.00000000,0.0000000 {W-lon(deg),Lat(deg),Alt(km)}
Center cylindric: 0.00000000,0.00000000,0.0000000 {W-lon(deg),Dxy(km),Dz(km)}
Center radii    : 3396.2 x 3396.2 x 3376.2 km     {Equator, meridian, pole}    
Keplerian GM    : 4.2828373716854781E+04 km^3/s^2
Output units    : KM-S, deg, Julian Day Number (Tp)
Output type     : GEOMETRIC osculating elements
Output format   : 10
Reference frame : Ecliptic of J2000.0
*******************************************************************************
JDTDB
   EC    QR   IN
   OM    W    Tp
   N     MA   TA
   A     AD   PR
*******************************************************************************
$$SOE
2433555.500000000 = A.D. 1950-Oct-01 00:00:00.0000 TDB 
 EC= 2.780741719724101E-04 QR= 2.345213686807598E+04 IN= 2.751827044322486E+01
 OM= 8.149388718336196E+01 W = 2.543232000856167E+02 Tp=  2433555.342138736509
 N = 3.300149541776557E-03 MA= 4.501144310701740E+01 TA= 4.503398506965059E+01
 A = 2.345866011556319E+04 AD= 2.346518336305041E+04 PR= 1.090859657851149E+05
2433586.500000000 = A.D. 1950-Nov-01 00:00:00.0000 TDB 
 EC= 2.560789456151693E-04 QR= 2.345224580966184E+04 IN= 2.750271168701839E+01
 OM= 8.146753651875848E+01 W = 2.273499237108368E+02 Tp=  2433586.808503738604
 N = 3.300235458195053E-03 MA= 2.720331379689209E+02 TA= 2.720038116246333E+02
 A = 2.345825297434949E+04 AD= 2.346426013903713E+04 PR= 1.090831259042618E+05
2433616.500000000 = A.D. 1950-Dec-01 00:00:00.0000 TDB 
 EC= 1.791869078467386E-04 QR= 2.345405702457004E+04 IN= 2.748446828565035E+01
 OM= 8.142754204554139E+01 W = 2.509119124530442E+02 Tp=  2433615.927095626481
 N = 3.300233883213662E-03 MA= 1.633580719030430E+02 TA= 1.633639511664305E+02
 A = 2.345826043772133E+04 AD= 2.346246385087262E+04 PR= 1.090831779623581E+05
2433647.500000000 = A.D. 1951-Jan-01 00:00:00.0000 TDB 
 EC= 3.304616018898173E-04 QR= 2.345187917468083E+04 IN= 2.746807930755431E+01
 OM= 8.137033105721393E+01 W = 2.417989195088480E+02 Tp=  2433647.456000626087
 N = 3.299944533326710E-03 MA= 1.254489068096295E+01 TA= 1.255311912135050E+01
 A = 2.345963168214626E+04 AD= 2.346738418961168E+04 PR= 1.090927427307634E+05
2433678.500000000 = A.D. 1951-Feb-01 00:00:00.0000 TDB 
 EC= 2.340552131768800E-04 QR= 2.345379641909009E+04 IN= 2.745885581899127E+01
 OM= 8.130476201253536E+01 W = 2.303305419783809E+02 Tp=  2433678.976700684056
 N = 3.300017222058362E-03 MA= 2.240823916406931E+02 TA= 2.240637365774542E+02
 A = 2.345928718755375E+04 AD= 2.346477795601742E+04 PR= 1.090903397696369E+05
2433706.500000000 = A.D. 1951-Mar-01 00:00:00.0000 TDB 
 EC= 2.912134519056922E-04 QR= 2.345146588540586E+04 IN= 2.745761042047748E+01
 OM= 8.124857441106143E+01 W = 2.285279252800744E+02 Tp=  2433706.743818741757
 N = 3.300226113301958E-03 MA= 2.904776370619321E+02 TA= 2.904463712066565E+02
 A = 2.345829725712594E+04 AD= 2.346512862884601E+04 PR= 1.090834347831431E+05
2433737.500000000 = A.D. 1951-Apr-01 00:00:00.0000 TDB 
 EC= 2.902577249541174E-04 QR= 2.345214139779555E+04 IN= 2.746081025080088E+01
 OM= 8.119869946977505E+01 W = 2.584287336267525E+02 Tp=  2433737.146976176184
 N = 3.300088257759180E-03 MA= 1.006568445866897E+02 TA= 1.006895298019689E+02
 A = 2.345895053940892E+04 AD= 2.346575968102230E+04 PR= 1.090879915570641E+05
2433767.500000000 = A.D. 1951-May-01 00:00:00.0000 TDB 
 EC= 3.337488178569889E-04 QR= 2.345083679588341E+04 IN= 2.746421282355984E+01
 OM= 8.116529712501436E+01 W = 2.480028773336655E+02 Tp=  2433767.408932022750
 N = 3.300148279376789E-03 MA= 2.596646832833028E+01 TA= 2.598321990675303E+01
 A = 2.345866609796210E+04 AD= 2.346649540004080E+04 PR= 1.090860075135726E+05
2433798.500000000 = A.D. 1951-Jun-01 00:00:00.0000 TDB 
 EC= 2.605476145381163E-04 QR= 2.345360838270906E+04 IN= 2.746439323272287E+01
 OM= 8.114269555948040E+01 W = 2.376448682159768E+02 Tp=  2433798.933688006829
 N = 3.299925738872518E-03 MA= 2.363496580601609E+02 TA= 2.363248089113772E+02
 A = 2.345972075699003E+04 AD= 2.346583313127099E+04 PR= 1.090933640594593E+05
2433828.500000000 = A.D. 1951-Jul-01 00:00:00.0000 TDB 
 EC= 2.460727293002732E-04 QR= 2.345401974540445E+04 IN= 2.745955610734828E+01
 OM= 8.112687344104441E+01 W = 2.541753950663527E+02 Tp=  2433828.027601679321
 N = 3.299910588715415E-03 MA= 1.346865598579874E+02 TA= 1.347066031964987E+02
 A = 2.345979256058865E+04 AD= 2.346556537577285E+04 PR= 1.090938649159402E+05
2433859.500000000 = A.D. 1951-Aug-01 00:00:00.0000 TDB 
 EC= 3.423234804508843E-04 QR= 2.345072871764830E+04 IN= 2.744954068263914E+01
 OM= 8.111057385945674E+01 W = 2.453657793461919E+02 Tp=  2433859.557809247635
 N = 3.300128632814342E-03 MA= 3.435167848188884E+02 TA= 3.435056500909428E+02
 A = 2.345875920174530E+04 AD= 2.346678968584230E+04 PR= 1.090866569322157E+05
2433890.500000000 = A.D. 1951-Sep-01 00:00:00.0000 TDB 
 EC= 1.881001319818898E-04 QR= 2.345389391968148E+04 IN= 2.743589911971576E+01
 OM= 8.109026042769669E+01 W = 2.544114365507138E+02 Tp=  2433889.887936404441
 N = 3.300224177531018E-03 MA= 1.745234273608331E+02 TA= 1.745254840317156E+02
 A = 2.345830643021707E+04 AD= 2.346271894075266E+04 PR= 1.090834987668399E+05
2433920.500000000 = A.D. 1951-Oct-01 00:00:00.0000 TDB 
 EC= 2.779253571357881E-04 QR= 2.345173840724115E+04 IN= 2.742102020674951E+01
 OM= 8.106508327023867E+01 W = 2.633064354456745E+02 Tp=  2433920.217650617007
 N = 3.300234386670360E-03 MA= 8.050917398944557E+01 TA= 8.054058775377953E+01
 A = 2.345825805198803E+04 AD= 2.346477769673491E+04 PR= 1.090831613215229E+05
2433951.500000000 = A.D. 1951-Nov-01 00:00:00.0000 TDB 
 EC= 2.797073507547045E-04 QR= 2.345304475914779E+04 IN= 2.740546455962899E+01
 OM= 8.103276327696139E+01 W = 2.402312597889961E+02 Tp=  2433951.697664882056
 N = 3.299949829066481E-03 MA= 3.036426456880884E+02 TA= 3.036159568528190E+02
 A = 2.345960658355503E+04 AD= 2.346616840796226E+04 PR= 1.090925676593816E+05
2433981.500000000 = A.D. 1951-Dec-01 00:00:00.0000 TDB 
 EC= 2.121962670161437E-04 QR= 2.345442917094602E+04 IN= 2.739170070432455E+01
 OM= 8.099577266810695E+01 W = 2.469570723218706E+02 Tp=  2433982.019720919430
 N = 3.299991905419491E-03 MA= 2.118175349211116E+02 TA= 2.118047180809752E+02
 A = 2.345940716957382E+04 AD= 2.346438516820161E+04 PR= 1.090911766810038E+05
2434012.500000000 = A.D. 1952-Jan-01 00:00:00.0000 TDB 
 EC= 2.958036575313864E-04 QR= 2.345240470456030E+04 IN= 2.738014239360661E+01
 OM= 8.095393307780941E+01 W = 2.594842709897809E+02 Tp=  2434012.362006624229
 N = 3.300005220811481E-03 MA= 3.934473358760123E+01 TA= 3.936622966623752E+01
 A = 2.345934406433782E+04 AD= 2.346628342411534E+04 PR= 1.090907365023729E+05
2434043.500000000 = A.D. 1952-Feb-01 00:00:00.0000 TDB 
 EC= 2.523014929873293E-04 QR= 2.345216387628825E+04 IN= 2.737183352096557E+01
 OM= 8.091060528665042E+01 W = 2.296303464484417E+02 Tp=  2434043.818168061320
 N = 3.300271457582913E-03 MA= 2.692764600796593E+02 TA= 2.692475508798328E+02
 A = 2.345808238549673E+04 AD= 2.346400089470522E+04 PR= 1.090819360246386E+05
2434072.500000000 = A.D. 1952-Mar-01 00:00:00.0000 TDB 
 EC= 2.602649904798778E-04 QR= 2.345361213825688E+04 IN= 2.736700291495671E+01
 OM= 8.087105002178338E+01 W = 2.395827234437223E+02 Tp=  2434072.889097162988
 N = 3.299926345585540E-03 MA= 2.490630930338489E+02 TA= 2.490352412579645E+02
 A = 2.345971788150797E+04 AD= 2.346582362475906E+04 PR= 1.090933440019315E+05
2434103.500000000 = A.D. 1952-Apr-01 00:00:00.0000 TDB 
 EC= 2.827398410674279E-04 QR= 2.345169709118790E+04 IN= 2.736480204330165E+01
 OM= 8.083261010961324E+01 W = 2.689024839691818E+02 Tp=  2434103.290263060480
 N = 3.300219267913384E-03 MA= 5.980416962396098E+01 TA= 5.983217794463489E+01
 A = 2.345832969559774E+04 AD= 2.346496230000758E+04 PR= 1.090836610464418E+05
2434133.500000000 = A.D. 1952-May-01 00:00:00.0000 TDB 
 EC= 3.370583918761368E-04 QR= 2.345050010941314E+04 IN= 2.736419126853580E+01
 OM= 8.080187055502530E+01 W = 2.528259372992788E+02 Tp=  2434133.532368869521
 N = 3.300202962651385E-03 MA= 3.507704202364374E+02 TA= 3.507642227178096E+02
 A = 2.345840696233984E+04 AD= 2.346631381526653E+04 PR= 1.090841999944075E+05
2434164.500000000 = A.D. 1952-Jun-01 00:00:00.0000 TDB 
 EC= 1.983988302101371E-04 QR= 2.345379193750546E+04 IN= 2.736336234785168E+01
 OM= 8.077752944612452E+01 W = 2.548376200278346E+02 Tp=  2434165.100358184427
 N = 3.300194710878419E-03 MA= 1.888157746732814E+02 TA= 1.888122912342615E+02
 A = 2.345844606576346E+04 AD= 2.346310019402146E+04 PR= 1.090844727474211E+05
